GORIZONT 19             
1 20263U 89081A   26095.12753198 -.00000255  00000+0  00000+0 0  9998
2 20263  12.1558 333.9825 0005545 284.9597  73.5118  1.00199772 46600
RADUGA 24               
1 20367U 89098A   26094.94824554 -.00000324  00000+0  00000+0 0  9992
2 20367  12.5839 334.3118 0003324 300.2716   0.2784  1.00307784132234
COSMOS 2054             
1 20391U 89101A   26094.85462090  .00000053  00000+0  00000+0 0  9995
2 20391  12.3171 334.7544 0001157 272.0332  78.6779  1.00249987133129
STTW-4                  
1 20473U 90011A   26094.92827491 -.00000260  00000+0  00000+0 0  9997
2 20473  14.1933 346.9711 0001721 165.3938 105.7953  1.00310194132304
RADUGA 25               
1 20499U 90016A   26095.09451857 -.00000302  00000+0  00000+0 0  9995
2 20499  12.3981 335.1998 0004202 218.5284 338.7696  1.00204630132178
INSAT-1D                
1 20643U 90051A   26094.91425776 -.00000168  00000+0  00000+0 0  9996
2 20643  14.6183 354.5256 0014811 194.0527  54.7245  1.00279765118018
GORIZONT 20             
1 20659U 90054A   26094.75943203 -.00000022  00000+0  00000+0 0  9997
2 20659  12.7533 336.5826 0005990 246.5307 308.0540  1.00316286130953
SL-12 R/B(2)            
1 20662U 90054D   26094.66734097 -.00000192  00000+0  00000+0 0  9998
2 20662  12.5963 336.0006 0013518  98.9509 261.1494  1.00517729131059
COSMOS 2085             
1 20693U 90061A   26094.82974316 -.00000081  00000+0  00000+0 0  9995
2 20693  12.7410 337.0059 0014037  29.0386 198.3182  1.00262339130762
SL-12 R/B(2)            
1 20696U 90061D   26094.52574053 -.00000376  00000+0  00000+0 0  9996
2 20696  12.7077 336.8797 0031718 218.4327 305.7990  1.00304950129668
SKYNET 4C               
1 20776U 90079A   26094.82466319  .00000127  00000+0  00000+0 0  9995
2 20776  13.3636 350.3148 0003469  18.3144 154.7866  1.00277012130150
SL-12 R/B(2)            
1 20836U 74060F   26095.26891666 -.00000361  00000+0  00000+0 0  9991
2 20836   1.5413 252.0579 0014719 225.2459 289.9180  1.00307373 45275
GALAXY 6 (G-6)          
1 20873U 90091B   26093.46086357 -.00000032  00000+0  00000+0 0  9992
2 20873  13.9772  10.5621 0005125 259.6522 272.3654  0.99767349 45709
GORIZONT 21             
1 20923U 90094A   26094.97143181 -.00000350  00000+0  00000+0 0  9990
2 20923  12.8063 337.2780 0006851 270.9302  66.2157  1.00216011129710
GORIZONT 22             
1 20953U 90102A   26094.56026435 -.00000299  00000+0  00000+0 0  9992
2 20953  12.7942 337.7566 0004843 346.6538 209.3851  1.00289717129631
RADUGA 26               
1 21016U 90112A   26094.75891204  .00000018  00000+0  00000+0 0  9997
2 21016  12.9015 338.4229 0003110 107.4010  82.1222  1.00233173129525
SL-12 R/B(2)            
1 21019U 90112D   26094.22447333 -.00000005  00000+0  00000+0 0  9999
2 21019  12.9623 338.5990 0024606 182.1166 356.0154  1.00013206119196
