[{"OBJECT_NAME":"GORIZONT 19","OBJECT_ID":"1989-081A","EPOCH":"2026-04-05T03:03:38.763072","MEAN_MOTION":1.00199772,"ECCENTRICITY":0.00055454,"INCLINATION":12.1558,"RA_OF_ASC_NODE":333.9825,"ARG_OF_PERICENTER":284.9597,"MEAN_ANOMALY":73.5118,"EPHEMERIS_TYPE":0,"CLASSIFICATION_TYPE":"U","NORAD_CAT_ID":20263,"ELEMENT_SET_NO":999,"REV_AT_EPOCH":4660,"BSTAR":0,"MEAN_MOTION_DOT":-2.55e-6,"MEAN_MOTION_DDOT":0},{"OBJECT_NAME":"RADUGA 24","OBJECT_ID":"1989-098A","EPOCH":"2026-04-04T22:45:28.414656","MEAN_MOTION":1.00307784,"ECCENTRICITY":0.00033244,"INCLINATION":12.5839,"RA_OF_ASC_NODE":334.3118,"ARG_OF_PERICENTER":300.2716,"MEAN_ANOMALY":0.2784,"EPHEMERIS_TYPE":0,"CLASSIFICATION_TYPE":"U","NORAD_CAT_ID":20367,"ELEMENT_SET_NO":999,"REV_AT_EPOCH":13223,"BSTAR":0,"MEAN_MOTION_DOT":-3.24e-6,"MEAN_MOTION_DDOT":0},{"OBJECT_NAME":"COSMOS 2054","OBJECT_ID":"1989-101A","EPOCH":"2026-04-04T20:30:39.245760","MEAN_MOTION":1.00249987,"ECCENTRICITY":0.00011579,"INCLINATION":12.3171,"RA_OF_ASC_NODE":334.7544,"ARG_OF_PERICENTER":272.0332,"MEAN_ANOMALY":78.6779,"EPHEMERIS_TYPE":0,"CLASSIFICATION_TYPE":"U","NORAD_CAT_ID":20391,"ELEMENT_SET_NO":999,"REV_AT_EPOCH":13312,"BSTAR":0,"MEAN_MOTION_DOT":5.3e-7,"MEAN_MOTION_DDOT":0},{"OBJECT_NAME":"STTW-4","OBJECT_ID":"1990-011A","EPOCH":"2026-04-04T22:16:42.952224","MEAN_MOTION":1.00310194,"ECCENTRICITY":0.00017218,"INCLINATION":14.1933,"RA_OF_ASC_NODE":346.9711,"ARG_OF_PERICENTER":165.3938,"MEAN_ANOMALY":105.7953,"EPHEMERIS_TYPE":0,"CLASSIFICATION_TYPE":"U","NORAD_CAT_ID":20473,"ELEMENT_SET_NO":999,"REV_AT_EPOCH":13230,"BSTAR":0,"MEAN_MOTION_DOT":-2.6e-6,"MEAN_MOTION_DDOT":0},{"OBJECT_NAME":"RADUGA 25","OBJECT_ID":"1990-016A","EPOCH":"2026-04-05T02:16:06.404448","MEAN_MOTION":1.0020463,"ECCENTRICITY":0.00042024,"INCLINATION":12.3981,"RA_OF_ASC_NODE":335.1998,"ARG_OF_PERICENTER":218.5284,"MEAN_ANOMALY":338.7696,"EPHEMERIS_TYPE":0,"CLASSIFICATION_TYPE":"U","NORAD_CAT_ID":20499,"ELEMENT_SET_NO":999,"REV_AT_EPOCH":13217,"BSTAR":0,"MEAN_MOTION_DOT":-3.02e-6,"MEAN_MOTION_DDOT":0},{"OBJECT_NAME":"INSAT-1D","OBJECT_ID":"1990-051A","EPOCH":"2026-04-04T21:56:31.870464","MEAN_MOTION":1.00279765,"ECCENTRICITY":0.00148115,"INCLINATION":14.6183,"RA_OF_ASC_NODE":354.5256,"ARG_OF_PERICENTER":194.0527,"MEAN_ANOMALY":54.7245,"EPHEMERIS_TYPE":0,"CLASSIFICATION_TYPE":"U","NORAD_CAT_ID":20643,"ELEMENT_SET_NO":999,"REV_AT_EPOCH":11801,"BSTAR":0,"MEAN_MOTION_DOT":-1.68e-6,"MEAN_MOTION_DDOT":0},{"OBJECT_NAME":"GORIZONT 20","OBJECT_ID":"1990-054A","EPOCH":"2026-04-04T18:13:34.927392","MEAN_MOTION":1.00316286,"ECCENTRICITY":0.000599,"INCLINATION":12.7533,"RA_OF_ASC_NODE":336.5826,"ARG_OF_PERICENTER":246.5307,"MEAN_ANOMALY":308.054,"EPHEMERIS_TYPE":0,"CLASSIFICATION_TYPE":"U","NORAD_CAT_ID":20659,"ELEMENT_SET_NO":999,"REV_AT_EPOCH":13095,"BSTAR":0,"MEAN_MOTION_DOT":-2.2e-7,"MEAN_MOTION_DDOT":0},{"OBJECT_NAME":"SL-12 R/B(2)","OBJECT_ID":"1990-054D","EPOCH":"2026-04-04T16:00:58.259808","MEAN_MOTION":1.00517729,"ECCENTRICITY":0.00135188,"INCLINATION":12.5963,"RA_OF_ASC_NODE":336.0006,"ARG_OF_PERICENTER":98.9509,"MEAN_ANOMALY":261.1494,"EPHEMERIS_TYPE":0,"CLASSIFICATION_TYPE":"U","NORAD_CAT_ID":20662,"ELEMENT_SET_NO":999,"REV_AT_EPOCH":13105,"BSTAR":0,"MEAN_MOTION_DOT":-1.92e-6,"MEAN_MOTION_DDOT":0},{"OBJECT_NAME":"COSMOS 2085","OBJECT_ID":"1990-061A","EPOCH":"2026-04-04T19:54:49.809024","MEAN_MOTION":1.00262339,"ECCENTRICITY":0.00140376,"INCLINATION":12.741,"RA_OF_ASC_NODE":337.0059,"ARG_OF_PERICENTER":29.0386,"MEAN_ANOMALY":198.3182,"EPHEMERIS_TYPE":0,"CLASSIFICATION_TYPE":"U","NORAD_CAT_ID":20693,"ELEMENT_SET_NO":999,"REV_AT_EPOCH":13076,"BSTAR":0,"MEAN_MOTION_DOT":-8.1e-7,"MEAN_MOTION_DDOT":0},{"OBJECT_NAME":"SL-12 R/B(2)","OBJECT_ID":"1990-061D","EPOCH":"2026-04-04T12:37:03.981792","MEAN_MOTION":1.0030495,"ECCENTRICITY":0.00317188,"INCLINATION":12.7077,"RA_OF_ASC_NODE":336.8797,"ARG_OF_PERICENTER":218.4327,"MEAN_ANOMALY":305.799,"EPHEMERIS_TYPE":0,"CLASSIFICATION_TYPE":"U","NORAD_CAT_ID":20696,"ELEMENT_SET_NO":999,"REV_AT_EPOCH":12966,"BSTAR":0,"MEAN_MOTION_DOT":-3.76e-6,"MEAN_MOTION_DDOT":0},{"OBJECT_NAME":"SKYNET 4C","OBJECT_ID":"1990-079A","EPOCH":"2026-04-04T19:47:30.899616","MEAN_MOTION":1.00277012,"ECCENTRICITY":0.00034699,"INCLINATION":13.3636,"RA_OF_ASC_NODE":350.3148,"ARG_OF_PERICENTER":18.3144,"MEAN_ANOMALY":154.7866,"EPHEMERIS_TYPE":0,"CLASSIFICATION_TYPE":"U","NORAD_CAT_ID":20776,"ELEMENT_SET_NO":999,"REV_AT_EPOCH":13015,"BSTAR":0,"MEAN_MOTION_DOT":1.27e-6,"MEAN_MOTION_DDOT":0},{"OBJECT_NAME":"SL-12 R/B(2)","OBJECT_ID":"1974-060F","EPOCH":"2026-04-05T06:27:14.399424","MEAN_MOTION":1.00307373,"ECCENTRICITY":0.00147198,"INCLINATION":1.5413,"RA_OF_ASC_NODE":252.0579,"ARG_OF_PERICENTER":225.2459,"MEAN_ANOMALY":289.918,"EPHEMERIS_TYPE":0,"CLASSIFICATION_TYPE":"U","NORAD_CAT_ID":20836,"ELEMENT_SET_NO":999,"REV_AT_EPOCH":4527,"BSTAR":0,"MEAN_MOTION_DOT":-3.61e-6,"MEAN_MOTION_DDOT":0},{"OBJECT_NAME":"GALAXY 6 (G-6)","OBJECT_ID":"1990-091B","EPOCH":"2026-04-03T11:03:38.612448","MEAN_MOTION":0.99767349,"ECCENTRICITY":0.0005125,"INCLINATION":13.9772,"RA_OF_ASC_NODE":10.5621,"ARG_OF_PERICENTER":259.6522,"MEAN_ANOMALY":272.3654,"EPHEMERIS_TYPE":0,"CLASSIFICATION_TYPE":"U","NORAD_CAT_ID":20873,"ELEMENT_SET_NO":999,"REV_AT_EPOCH":4570,"BSTAR":0,"MEAN_MOTION_DOT":-3.2e-7,"MEAN_MOTION_DDOT":0},{"OBJECT_NAME":"GORIZONT 21","OBJECT_ID":"1990-094A","EPOCH":"2026-04-04T23:18:51.708384","MEAN_MOTION":1.00216011,"ECCENTRICITY":0.00068511,"INCLINATION":12.8063,"RA_OF_ASC_NODE":337.278,"ARG_OF_PERICENTER":270.9302,"MEAN_ANOMALY":66.2157,"EPHEMERIS_TYPE":0,"CLASSIFICATION_TYPE":"U","NORAD_CAT_ID":20923,"ELEMENT_SET_NO":999,"REV_AT_EPOCH":12971,"BSTAR":0,"MEAN_MOTION_DOT":-3.5e-6,"MEAN_MOTION_DDOT":0},{"OBJECT_NAME":"GORIZONT 22","OBJECT_ID":"1990-102A","EPOCH":"2026-04-04T13:26:46.839840","MEAN_MOTION":1.00289717,"ECCENTRICITY":0.0004843,"INCLINATION":12.7942,"RA_OF_ASC_NODE":337.7566,"ARG_OF_PERICENTER":346.6538,"MEAN_ANOMALY":209.3851,"EPHEMERIS_TYPE":0,"CLASSIFICATION_TYPE":"U","NORAD_CAT_ID":20953,"ELEMENT_SET_NO":999,"REV_AT_EPOCH":12963,"BSTAR":0,"MEAN_MOTION_DOT":-2.99e-6,"MEAN_MOTION_DDOT":0},{"OBJECT_NAME":"RADUGA 26","OBJECT_ID":"1990-112A","EPOCH":"2026-04-04T18:12:50.000256","MEAN_MOTION":1.00233173,"ECCENTRICITY":0.000311,"INCLINATION":12.9015,"RA_OF_ASC_NODE":338.4229,"ARG_OF_PERICENTER":107.401,"MEAN_ANOMALY":82.1222,"EPHEMERIS_TYPE":0,"CLASSIFICATION_TYPE":"U","NORAD_CAT_ID":21016,"ELEMENT_SET_NO":999,"REV_AT_EPOCH":12952,"BSTAR":0,"MEAN_MOTION_DOT":1.8e-7,"MEAN_MOTION_DDOT":0},{"OBJECT_NAME":"SL-12 R/B(2)","OBJECT_ID":"1990-112D","EPOCH":"2026-04-04T05:23:14.495712","MEAN_MOTION":1.00013206,"ECCENTRICITY":0.00246067,"INCLINATION":12.9623,"RA_OF_ASC_NODE":338.599,"ARG_OF_PERICENTER":182.1166,"MEAN_ANOMALY":356.0154,"EPHEMERIS_TYPE":0,"CLASSIFICATION_TYPE":"U","NORAD_CAT_ID":21019,"ELEMENT_SET_NO":999,"REV_AT_EPOCH":11919,"BSTAR":0,"MEAN_MOTION_DOT":-5.0e-8,"MEAN_MOTION_DDOT":0}]
